[{"OBJECT_NAME":"SPIP","OBJECT_ID":"2023-174AU","EPOCH":"2026-03-09T22:52:46.383168","MEAN_MOTION":15.26695413,"ECCENTRICITY":0.00100427,"INCLINATION":97.3901,"RA_OF_ASC_NODE":146.4534,"ARG_OF_PERICENTER":168.1112,"MEAN_ANOMALY":192.0366,"EPHEMERIS_TYPE":0,"CLASSIFICATION_TYPE":"U","NORAD_CAT_ID":58298,"ELEMENT_SET_NO":999,"REV_AT_EPOCH":12963,"BSTAR":0.00025731582,"MEAN_MOTION_DOT":6.692e-5,"MEAN_MOTION_DDOT":0},{"OBJECT_NAME":"STARLINK-35782","OBJECT_ID":"2025-303V","EPOCH":"2026-03-09T01:32:42.171936","MEAN_MOTION":15.27563799,"ECCENTRICITY":0.00017939,"INCLINATION":43.003,"RA_OF_ASC_NODE":313.8882,"ARG_OF_PERICENTER":254.3565,"MEAN_ANOMALY":105.7089,"EPHEMERIS_TYPE":0,"CLASSIFICATION_TYPE":"U","NORAD_CAT_ID":67182,"ELEMENT_SET_NO":999,"REV_AT_EPOCH":1264,"BSTAR":0.00088479998,"MEAN_MOTION_DOT":0.00024154,"MEAN_MOTION_DDOT":0}]
